[{"OBJECT_NAME":"STARLINK-5901","OBJECT_ID":"2023-042P","EPOCH":"2026-03-09T07:26:34.876032","MEAN_MOTION":15.02534235,"ECCENTRICITY":0.00011768,"INCLINATION":43.0037,"RA_OF_ASC_NODE":58.142,"ARG_OF_PERICENTER":271.1677,"MEAN_ANOMALY":88.903,"EPHEMERIS_TYPE":0,"CLASSIFICATION_TYPE":"U","NORAD_CAT_ID":55999,"ELEMENT_SET_NO":999,"REV_AT_EPOCH":16285,"BSTAR":9.787212e-6,"MEAN_MOTION_DOT":-7.1e-7,"MEAN_MOTION_DDOT":0},{"OBJECT_NAME":"CZ-6A DEB","OBJECT_ID":"2022-151CD","EPOCH":"2026-03-09T04:34:52.178880","MEAN_MOTION":15.04926808,"ECCENTRICITY":0.00436133,"INCLINATION":98.6267,"RA_OF_ASC_NODE":153.8749,"ARG_OF_PERICENTER":159.2339,"MEAN_ANOMALY":201.0669,"EPHEMERIS_TYPE":0,"CLASSIFICATION_TYPE":"U","NORAD_CAT_ID":54334,"ELEMENT_SET_NO":999,"REV_AT_EPOCH":17669,"BSTAR":0.0057373504,"MEAN_MOTION_DOT":0.00083812,"MEAN_MOTION_DDOT":0}]
